{"type": "FeatureCollection", "features": [ {"type": "Feature", "properties": {"norad_id": 43618, "name": "SSTL S1-4", "group": "active", "lat": -4.9653242130362765, "lon": 28.972582960712447, "alt_km": 582.4290131785028, "timestamp": "2025-12-01T03:58:49.247830+00:00", "meta": {"OBJECT_NAME": "SSTL S1-4", "OBJECT_ID": "2018-071A", "EPOCH": "2025-11-30T20:44:11.092992", "MEAN_MOTION": 14.9616338, "ECCENTRICITY": 0.0002681, "INCLINATION": 97.5276, "RA_OF_ASC_NODE": 209.3406, "ARG_OF_PERICENTER": 96.1971, "MEAN_ANOMALY": 263.9556, "EPHEMERIS_TYPE": 0, "CLASSIFICATION_TYPE": "U", "NORAD_CAT_ID": 43618, "ELEMENT_SET_NO": 999, "REV_AT_EPOCH": 39328, "BSTAR": 0.00015187, "MEAN_MOTION_DOT": 1.655e-05, "MEAN_MOTION_DDOT": 0, "GROUP": "active"}, "tle": {"line1": "1 43618U 18071A   25334.86401728  .00001655  00000+0  15187-3 0  9993", "line2": "2 43618  97.5276 209.3406 0002681  96.1971 263.9556 14.96163380393286"}}, "geometry": {"type": "Point", "coordinates": [28.972582960712447, -4.9653242130362765]}}, {"type": "Feature", "properties": {"norad_id": 43619, "name": "NOVASAR 1", "group": "active", "lat": -2.6818965637351466, "lon": -149.4115004490507, "alt_km": 581.8529946106264, "timestamp": "2025-12-01T03:58:49.247840+00:00", "meta": {"OBJECT_NAME": "NOVASAR 1", "OBJECT_ID": "2018-071B", "EPOCH": "2025-11-30T21:34:20.030880", "MEAN_MOTION": 14.96219515, "ECCENTRICITY": 0.0002494, "INCLINATION": 97.5318, "RA_OF_ASC_NODE": 209.9765, "ARG_OF_PERICENTER": 83.8911, "MEAN_ANOMALY": 276.2595, "EPHEMERIS_TYPE": 0, "CLASSIFICATION_TYPE": "U", "NORAD_CAT_ID": 43619, "ELEMENT_SET_NO": 999, "REV_AT_EPOCH": 39328, "BSTAR": 1.989e-05, "MEAN_MOTION_DOT": 1.7e-06, "MEAN_MOTION_DDOT": 0, "GROUP": "active"}, "tle": {"line1": "1 43619U 18071B   25334.89884295  .00000170  00000+0  19890-4 0  9998", "line2": "2 43619  97.5318 209.9765 0002494  83.8911 276.2595 14.96219515393289"}}, "geometry": {"type": "Point", "coordinates": [-149.4115004490507, -2.6818965637351466]}}, {"type": "Feature", "properties": {"norad_id": 43636, "name": "CENTISPACE-1 S1", "group": "active", "lat": 5.532120426349047, "lon": 2.8988594205735105, "alt_km": 690.4443063037061, "timestamp": "2025-12-01T03:58:49.247851+00:00", "meta": {"OBJECT_NAME": "CENTISPACE-1 S1", "OBJECT_ID": "2018-075A", "EPOCH": "2025-11-30T19:43:45.000768", "MEAN_MOTION": 14.59712707, "ECCENTRICITY": 0.0009267, "INCLINATION": 97.8935, "RA_OF_ASC_NODE": 3.3416, "ARG_OF_PERICENTER": 32.6419, "MEAN_ANOMALY": 327.5353, "EPHEMERIS_TYPE": 0, "CLASSIFICATION_TYPE": "U", "NORAD_CAT_ID": 43636, "ELEMENT_SET_NO": 999, "REV_AT_EPOCH": 38161, "BSTAR": 0.00012281, "MEAN_MOTION_DOT": 5.42e-06, "MEAN_MOTION_DDOT": 0, "GROUP": "active"}, "tle": {"line1": "1 43636U 18075A   25334.82204862  .00000542  00000+0  12281-3 0  9999", "line2": "2 43636  97.8935   3.3416 0009267  32.6419 327.5353 14.59712707381611"}}, "geometry": {"type": "Point", "coordinates": [2.8988594205735105, 5.532120426349047]}}, {"type": "Feature", "properties": {"norad_id": 43641, "name": "SAOCOM 1A", "group": "active", "lat": -23.960354201993592, "lon": -23.774623798863537, "alt_km": 628.5836483611756, "timestamp": "2025-12-01T03:58:49.247860+00:00", "meta": {"OBJECT_NAME": "SAOCOM 1A", "OBJECT_ID": "2018-076A", "EPOCH": "2025-11-30T20:34:53.395680", "MEAN_MOTION": 14.82155967, "ECCENTRICITY": 0.0001577, "INCLINATION": 97.8848, "RA_OF_ASC_NODE": 159.4526, "ARG_OF_PERICENTER": 87.4688, "MEAN_ANOMALY": 272.6706, "EPHEMERIS_TYPE": 0, "CLASSIFICATION_TYPE": "U", "NORAD_CAT_ID": 43641, "ELEMENT_SET_NO": 999, "REV_AT_EPOCH": 38672, "BSTAR": 7.3292e-05, "MEAN_MOTION_DOT": 5.31e-06, "MEAN_MOTION_DDOT": 0, "GROUP": "active"}, "tle": {"line1": "1 43641U 18076A   25334.85756245  .00000531  00000+0  73292-4 0  9994", "line2": "2 43641  97.8848 159.4526 0001577  87.4688 272.6706 14.82155967386721"}}, "geometry": {"type": "Point", "coordinates": [-23.774623798863537, -23.960354201993592]}}, {"type": "Feature", "properties": {"norad_id": 43642, "name": "YAOGAN-32 A", "group": "active", "lat": -0.35051232162990037, "lon": -177.58322931453515, "alt_km": 686.8431630928326, "timestamp": "2025-12-01T03:58:49.247871+00:00", "meta": {"OBJECT_NAME": "YAOGAN-32 A", "OBJECT_ID": "2018-077A", "EPOCH": "2025-11-30T20:35:34.953216", "MEAN_MOTION": 14.6291416, "ECCENTRICITY": 0.0001552, "INCLINATION": 97.9249, "RA_OF_ASC_NODE": 2.17, "ARG_OF_PERICENTER": 90.0555, "MEAN_ANOMALY": 270.0826, "EPHEMERIS_TYPE": 0, "CLASSIFICATION_TYPE": "U", "NORAD_CAT_ID": 43642, "ELEMENT_SET_NO": 999, "REV_AT_EPOCH": 38084, "BSTAR": 0.00017586, "MEAN_MOTION_DOT": 8.55e-06, "MEAN_MOTION_DDOT": 0, "GROUP": "active"}, "tle": {"line1": "1 43642U 18077A   25334.85804344  .00000855  00000+0  17586-3 0  9992", "line2": "2 43642  97.9249   2.1700 0001552  90.0555 270.0826 14.62914160380840"}}, "geometry": {"type": "Point", "coordinates": [-177.58322931453515, -0.35051232162990037]}}, {"type": "Feature", "properties": {"norad_id": 43643, "name": "YAOGAN-32 B", "group": "active", "lat": -0.9248426214163558, "lon": -177.7034339055019, "alt_km": 686.9572553665812, "timestamp": "2025-12-01T03:58:49.247881+00:00", "meta": {"OBJECT_NAME": "YAOGAN-32 B", "OBJECT_ID": "2018-077B", "EPOCH": "2025-11-30T20:35:25.421568", "MEAN_MOTION": 14.62915005, "ECCENTRICITY": 0.0001474, "INCLINATION": 97.925, "RA_OF_ASC_NODE": 2.1297, "ARG_OF_PERICENTER": 88.235, "MEAN_ANOMALY": 271.9022, "EPHEMERIS_TYPE": 0, "CLASSIFICATION_TYPE": "U", "NORAD_CAT_ID": 43643, "ELEMENT_SET_NO": 999, "REV_AT_EPOCH": 38083, "BSTAR": 0.00017394, "MEAN_MOTION_DOT": 8.45e-06, "MEAN_MOTION_DDOT": 0, "GROUP": "active"}, "tle": {"line1": "1 43643U 18077B   25334.85793312  .00000845  00000+0  17394-3 0  9991", "line2": "2 43643  97.9250   2.1297 0001474  88.2350 271.9022 14.62915005380835"}}, "geometry": {"type": "Point", "coordinates": [-177.7034339055019, -0.9248426214163558]}}, {"type": "Feature", "properties": {"norad_id": 43651, "name": "AEHF-4 (USA 288)", "group": "active", "lat": 1.4360029254002258, "lon": 63.08023441752642, "alt_km": 35717.92606381249, "timestamp": "2025-12-01T03:58:49.247893+00:00", "meta": {"OBJECT_NAME": "AEHF-4 (USA 288)", "OBJECT_ID": "2018-079A", "EPOCH": "2025-11-30T11:48:32.294016", "MEAN_MOTION": 1.00268388, "ECCENTRICITY": 0.0059201, "INCLINATION": 1.4593, "RA_OF_ASC_NODE": 346.7091, "ARG_OF_PERICENTER": 1.9843, "MEAN_ANOMALY": 190.5468, "EPHEMERIS_TYPE": 0, "CLASSIFICATION_TYPE": "U", "NORAD_CAT_ID": 43651, "ELEMENT_SET_NO": 999, "REV_AT_EPOCH": 2630, "BSTAR": 0, "MEAN_MOTION_DOT": -2.55e-06, "MEAN_MOTION_DDOT": 0, "GROUP": "active"}, "tle": {"line1": "1 43651U 18079A   25334.49204044 -.00000255  00000+0  00000+0 0  9999", "line2": "2 43651   1.4593 346.7091 0059201   1.9843 190.5468  1.00268388 26305"}}, "geometry": {"type": "Point", "coordinates": [63.08023441752642, 1.4360029254002258]}}, {"type": "Feature", "properties": {"norad_id": 43655, "name": "HAIYANG-2B", "group": "active", "lat": 13.029097577018879, "lon": 164.07034150949647, "alt_km": 967.037520395641, "timestamp": "2025-12-01T03:58:49.247903+00:00", "meta": {"OBJECT_NAME": "HAIYANG-2B", "OBJECT_ID": "2018-081A", "EPOCH": "2025-11-30T20:12:40.795776", "MEAN_MOTION": 13.79306815, "ECCENTRICITY": 0.0001965, "INCLINATION": 99.333, "RA_OF_ASC_NODE": 341.5707, "ARG_OF_PERICENTER": 89.8583, "MEAN_ANOMALY": 270.2794, "EPHEMERIS_TYPE": 0, "CLASSIFICATION_TYPE": "U", "NORAD_CAT_ID": 43655, "ELEMENT_SET_NO": 999, "REV_AT_EPOCH": 35758, "BSTAR": 5.9847e-05, "MEAN_MOTION_DOT": 1.7e-07, "MEAN_MOTION_DDOT": 0, "GROUP": "active"}, "tle": {"line1": "1 43655U 18081A   25334.84213884  .00000017  00000+0  59847-4 0  9990", "line2": "2 43655  99.3330 341.5707 0001965  89.8583 270.2794 13.79306815357583"}}, "geometry": {"type": "Point", "coordinates": [164.07034150949647, 13.029097577018879]}}, {"type": "Feature", "properties": {"norad_id": 43657, "name": "COSMOS 2528", "group": "active", "lat": 44.60622453913062, "lon": -136.37705155771985, "alt_km": 903.0145404424502, "timestamp": "2025-12-01T03:58:49.247913+00:00", "meta": {"OBJECT_NAME": "COSMOS 2528", "OBJECT_ID": "2018-082A", "EPOCH": "2025-11-30T20:52:08.364000", "MEAN_MOTION": 13.96691911, "ECCENTRICITY": 0.0004055, "INCLINATION": 67.1471, "RA_OF_ASC_NODE": 199.7635, "ARG_OF_PERICENTER": 266.4291, "MEAN_ANOMALY": 93.633, "EPHEMERIS_TYPE": 0, "CLASSIFICATION_TYPE": "U", "NORAD_CAT_ID": 43657, "ELEMENT_SET_NO": 999, "REV_AT_EPOCH": 36225, "BSTAR": 2.7082e-05, "MEAN_MOTION_DOT": -3.8e-07, "MEAN_MOTION_DDOT": 0, "GROUP": "active"}, "tle": {"line1": "1 43657U 18082A   25334.86954125 -.00000038  00000+0  27082-4 0  9995", "line2": "2 43657  67.1471 199.7635 0004055 266.4291  93.6330 13.96691911362255"}}, "geometry": {"type": "Point", "coordinates": [-136.37705155771985, 44.60622453913062]}}, {"type": "Feature", "properties": {"norad_id": 43662, "name": "CFOSAT", "group": "active", "lat": -5.2030499641876045, "lon": 159.85104381767127, "alt_km": 519.9100640540964, "timestamp": "2025-12-01T03:58:49.247923+00:00", "meta": {"OBJECT_NAME": "CFOSAT", "OBJECT_ID": "2018-083A", "EPOCH": "2025-11-30T20:49:55.617312", "MEAN_MOTION": 15.16461257, "ECCENTRICITY": 0.0001539, "INCLINATION": 97.3626, "RA_OF_ASC_NODE": 340.2366, "ARG_OF_PERICENTER": 116.3935, "MEAN_ANOMALY": 243.7456, "EPHEMERIS_TYPE": 0, "CLASSIFICATION_TYPE": "U", "NORAD_CAT_ID": 43662, "ELEMENT_SET_NO": 999, "REV_AT_EPOCH": 39238, "BSTAR": 0.00021216, "MEAN_MOTION_DOT": 4.063e-05, "MEAN_MOTION_DDOT": 0, "GROUP": "active"}, "tle": {"line1": "1 43662U 18083A   25334.86800483  .00004063  00000+0  21216-3 0  9992", "line2": "2 43662  97.3626 340.2366 0001539 116.3935 243.7456 15.16461257392380"}}, "geometry": {"type": "Point", "coordinates": [159.85104381767127, -5.2030499641876045]}}]}